{
  "type": "FeatureCollection",
  "features": [
    {
      "type": "Feature",
      "properties": {
        "norad_id": 39227,
        "name": "ARIRANG-5 (KOMPSAT-5)",
        "group": "resource",
        "lat": -37.75741224433143,
        "lon": -174.55552583142597,
        "alt_km": 558.6666830052218,
        "timestamp": "2025-12-21T07:34:34.197534+00:00",
        "meta_object_name": "ARIRANG-5 (KOMPSAT-5)",
        "meta_object_id": "2013-042A",
        "meta_epoch": "2025-12-20T22:10:06.006432",
        "meta_mean_motion": 15.04541477,
        "meta_eccentricity": 0.00034383,
        "meta_inclination": 97.6154,
        "meta_ra_of_asc_node": 179.1104,
        "meta_arg_of_pericenter": 36.2736,
        "meta_mean_anomaly": 323.8722,
        "meta_ephemeris_type": 0,
        "meta_classification_type": "U",
        "meta_norad_cat_id": 39227,
        "meta_element_set_no": 999,
        "meta_rev_at_epoch": 67705,
        "meta_bstar": 0.00015868078,
        "meta_mean_motion_dot": 2.163e-05,
        "meta_mean_motion_ddot": 0,
        "tle_line1": "1 39227U 13042A   25354.92368063  .00002163  00000+0  15868-3 0  9991",
        "tle_line2": "2 39227  97.6154 179.1104 0003438  36.2736 323.8722 15.04541477677055"
      },
      "geometry": {
        "type": "Point",
        "coordinates": [
          -174.55552583142597,
          -37.75741224433143
        ]
      }
    },
    {
      "type": "Feature",
      "properties": {
        "norad_id": 39418,
        "name": "SKYSAT-A",
        "group": "resource",
        "lat": -14.048178313952379,
        "lon": -136.60246117309498,
        "alt_km": 521.4004692503804,
        "timestamp": "2025-12-21T07:34:34.197543+00:00",
        "meta_object_name": "SKYSAT-A",
        "meta_object_id": "2013-066C",
        "meta_epoch": "2025-12-20T21:11:15.667872",
        "meta_mean_motion": 15.11658266,
        "meta_eccentricity": 0.00213232,
        "meta_inclination": 97.4095,
        "meta_ra_of_asc_node": 44.8439,
        "meta_arg_of_pericenter": 207.0168,
        "meta_mean_anomaly": 152.9954,
        "meta_ephemeris_type": 0,
        "meta_classification_type": "U",
        "meta_norad_cat_id": 39418,
        "meta_element_set_no": 999,
        "meta_rev_at_epoch": 66153,
        "meta_bstar": 0.00016583065,
        "meta_mean_motion_dot": 2.771e-05,
        "meta_mean_motion_ddot": 0,
        "tle_line1": "1 39418U 13066C   25354.88282023  .00002771  00000+0  16583-3 0  9995",
        "tle_line2": "2 39418  97.4095  44.8439 0021323 207.0168 152.9954 15.11658266661535"
      },
      "geometry": {
        "type": "Point",
        "coordinates": [
          -136.60246117309498,
          -14.048178313952379
        ]
      }
    },
    {
      "type": "Feature",
      "properties": {
        "norad_id": 39419,
        "name": "DUBAISAT-2",
        "group": "resource",
        "lat": -55.708898755876966,
        "lon": 154.4042398711686,
        "alt_km": 543.7876126089295,
        "timestamp": "2025-12-21T07:34:34.197552+00:00",
        "meta_object_name": "DUBAISAT-2",
        "meta_object_id": "2013-066D",
        "meta_epoch": "2025-12-20T22:34:12.848736",
        "meta_mean_motion": 15.08426596,
        "meta_eccentricity": 0.00100101,
        "meta_inclination": 97.4441,
        "meta_ra_of_asc_node": 345.0947,
        "meta_arg_of_pericenter": 289.3318,
        "meta_mean_anomaly": 70.6828,
        "meta_ephemeris_type": 0,
        "meta_classification_type": "U",
        "meta_norad_cat_id": 39419,
        "meta_element_set_no": 999,
        "meta_rev_at_epoch": 65950,
        "meta_bstar": 0.00024528902,
        "meta_mean_motion_dot": 3.76e-05,
        "meta_mean_motion_ddot": 0,
        "tle_line1": "1 39419U 13066D   25354.94042649  .00003760  00000+0  24529-3 0  9999",
        "tle_line2": "2 39419  97.4441 345.0947 0010010 289.3318  70.6828 15.08426596659507"
      },
      "geometry": {
        "type": "Point",
        "coordinates": [
          154.4042398711686,
          -55.708898755876966
        ]
      }
    },
    {
      "type": "Feature",
      "properties": {
        "norad_id": 39574,
        "name": "GPM-CORE",
        "group": "resource",
        "lat": 60.28252943176122,
        "lon": -121.09386494427548,
        "alt_km": 432.0716246423308,
        "timestamp": "2025-12-21T07:34:34.197561+00:00",
        "meta_object_name": "GPM-CORE",
        "meta_object_id": "2014-009C",
        "meta_epoch": "2025-12-20T21:56:07.332864",
        "meta_mean_motion": 15.44580494,
        "meta_eccentricity": 0.00093375,
        "meta_inclination": 64.9718,
        "meta_ra_of_asc_node": 185.3081,
        "meta_arg_of_pericenter": 248.4407,
        "meta_mean_anomaly": 111.5739,
        "meta_ephemeris_type": 0,
        "meta_classification_type": "U",
        "meta_norad_cat_id": 39574,
        "meta_element_set_no": 999,
        "meta_rev_at_epoch": 67027,
        "meta_bstar": 0.00012456087,
        "meta_mean_motion_dot": 5.576e-05,
        "meta_mean_motion_ddot": 0,
        "tle_line1": "1 39574U 14009C   25354.91397376  .00005576  00000+0  12456-3 0  9999",
        "tle_line2": "2 39574  64.9718 185.3081 0009337 248.4407 111.5739 15.44580494670275"
      },
      "geometry": {
        "type": "Point",
        "coordinates": [
          -121.09386494427548,
          60.28252943176122
        ]
      }
    },
    {
      "type": "Feature",
      "properties": {
        "norad_id": 39634,
        "name": "SENTINEL-1A",
        "group": "resource",
        "lat": 31.85028928106785,
        "lon": -174.44328462663913,
        "alt_km": 693.516601653133,
        "timestamp": "2025-12-21T07:34:34.197571+00:00",
        "meta_object_name": "SENTINEL-1A",
        "meta_object_id": "2014-016A",
        "meta_epoch": "2025-12-20T22:40:23.293920",
        "meta_mean_motion": 14.59200345,
        "meta_eccentricity": 0.0001261,
        "meta_inclination": 98.1795,
        "meta_ra_of_asc_node": 0.0648,
        "meta_arg_of_pericenter": 86.3368,
        "meta_mean_anomaly": 273.7976,
        "meta_ephemeris_type": 0,
        "meta_classification_type": "U",
        "meta_norad_cat_id": 39634,
        "meta_element_set_no": 999,
        "meta_rev_at_epoch": 62402,
        "meta_bstar": 1.0675039e-05,
        "meta_mean_motion_dot": 5e-08,
        "meta_mean_motion_ddot": 0,
        "tle_line1": "1 39634U 14016A   25354.94471405  .00000005  00000+0  10675-4 0  9997",
        "tle_line2": "2 39634  98.1795   0.0648 0001261  86.3368 273.7976 14.59200345624026"
      },
      "geometry": {
        "type": "Point",
        "coordinates": [
          -174.44328462663913,
          31.85028928106785
        ]
      }
    },
    {
      "type": "Feature",
      "properties": {
        "norad_id": 39731,
        "name": "KAZEOSAT 1",
        "group": "resource",
        "lat": -45.471148503403384,
        "lon": 75.61042063457587,
        "alt_km": 759.0680813349327,
        "timestamp": "2025-12-21T07:34:34.197580+00:00",
        "meta_object_name": "KAZEOSAT 1",
        "meta_object_id": "2014-024A",
        "meta_epoch": "2025-12-20T21:47:53.118816",
        "meta_mean_motion": 14.42066264,
        "meta_eccentricity": 0.00011783,
        "meta_inclination": 98.3432,
        "meta_ra_of_asc_node": 66.6326,
        "meta_arg_of_pericenter": 97.4721,
        "meta_mean_anomaly": 262.6603,
        "meta_ephemeris_type": 0,
        "meta_classification_type": "U",
        "meta_norad_cat_id": 39731,
        "meta_element_set_no": 999,
        "meta_rev_at_epoch": 61286,
        "meta_bstar": 2.4461085e-05,
        "meta_mean_motion_dot": 3.7e-07,
        "meta_mean_motion_ddot": 0,
        "tle_line1": "1 39731U 14024A   25354.90825369  .00000037  00000+0  24461-4 0  9995",
        "tle_line2": "2 39731  98.3432  66.6326 0001178  97.4721 262.6603 14.42066264612863"
      },
      "geometry": {
        "type": "Point",
        "coordinates": [
          75.61042063457587,
          -45.471148503403384
        ]
      }
    },
    {
      "type": "Feature",
      "properties": {
        "norad_id": 39766,
        "name": "ALOS-2",
        "group": "resource",
        "lat": -82.01215896222088,
        "lon": 173.00447071402937,
        "alt_km": 639.3303519802748,
        "timestamp": "2025-12-21T07:34:34.197589+00:00",
        "meta_object_name": "ALOS-2",
        "meta_object_id": "2014-029A",
        "meta_epoch": "2025-12-20T22:14:20.585760",
        "meta_mean_motion": 14.79471119,
        "meta_eccentricity": 0.00014086,
        "meta_inclination": 97.9232,
        "meta_ra_of_asc_node": 89.6565,
        "meta_arg_of_pericenter": 97.0747,
        "meta_mean_anomaly": 263.0625,
        "meta_ephemeris_type": 0,
        "meta_classification_type": "U",
        "meta_norad_cat_id": 39766,
        "meta_element_set_no": 999,
        "meta_rev_at_epoch": 62522,
        "meta_bstar": 0.00019456291,
        "meta_mean_motion_dot": 1.402e-05,
        "meta_mean_motion_ddot": 0,
        "tle_line1": "1 39766U 14029A   25354.92662715  .00001402  00000+0  19456-3 0  9998",
        "tle_line2": "2 39766  97.9232  89.6565 0001408  97.0747 263.0625 14.79471119625226"
      },
      "geometry": {
        "type": "Point",
        "coordinates": [
          173.00447071402937,
          -82.01215896222088
        ]
      }
    }
  ]
}